CENTAURI-1              
1 43809U 18099BD  26193.67579019  .00003124  00000+0  16300-3 0  9998
2 43809  97.4213 244.8497 0012789 234.4410 125.5631 15.16610155416369
CENTAURI-6              
1 59451U 24066K   26193.80662213  .00002772  00000+0  20373-3 0  9996
2 59451  45.6059 120.6772 0001551 246.7186 113.3535 15.06021918123983
CENTAURI-7              
1 62708U 25009DD  26193.78015818  .00002553  00000+0  22140-3 0  9994
2 62708  97.7105 273.7307 0002858 107.1936 252.9599 14.97966627 81291
CENTAURI-8              
1 62714U 25009DK  26193.74195595  .00001444  00000+0  12751-3 0  9993
2 62714  97.7043 273.5159 0002505  79.7814 280.3690 14.97918903 81303
