{"fetched_at":"2026-07-13T07:48:11.979Z","source":"https://celestrak.org/NORAD/elements/gp.php?NAME=CENTAURI&FORMAT=JSON","constellation":"myriota","records":[{"OBJECT_NAME":"CENTAURI-1","OBJECT_ID":"2018-099BD","EPOCH":"2026-07-12T16:13:08.272416","CLASSIFICATION_TYPE":"U","MEAN_MOTION":15.16610155,"ECCENTRICITY":0.0012789,"INCLINATION":97.4213,"RA_OF_ASC_NODE":244.8497,"ARG_OF_PERICENTER":234.441,"MEAN_ANOMALY":125.5631,"EPHEMERIS_TYPE":0,"NORAD_CAT_ID":43809,"ELEMENT_SET_NO":999,"REV_AT_EPOCH":41636,"BSTAR":0.000163,"MEAN_MOTION_DOT":0.00003124,"MEAN_MOTION_DDOT":0},{"OBJECT_NAME":"CENTAURI-6","OBJECT_ID":"2024-066K","EPOCH":"2026-07-12T19:21:32.152032","CLASSIFICATION_TYPE":"U","MEAN_MOTION":15.06021918,"ECCENTRICITY":0.0001551,"INCLINATION":45.6059,"RA_OF_ASC_NODE":120.6772,"ARG_OF_PERICENTER":246.7186,"MEAN_ANOMALY":113.3535,"EPHEMERIS_TYPE":0,"NORAD_CAT_ID":59451,"ELEMENT_SET_NO":999,"REV_AT_EPOCH":12398,"BSTAR":0.00020373,"MEAN_MOTION_DOT":0.00002772,"MEAN_MOTION_DDOT":0},{"OBJECT_NAME":"CENTAURI-7","OBJECT_ID":"2025-009DD","EPOCH":"2026-07-12T18:43:25.666752","CLASSIFICATION_TYPE":"U","MEAN_MOTION":14.97966627,"ECCENTRICITY":0.0002858,"INCLINATION":97.7105,"RA_OF_ASC_NODE":273.7307,"ARG_OF_PERICENTER":107.1936,"MEAN_ANOMALY":252.9599,"EPHEMERIS_TYPE":0,"NORAD_CAT_ID":62708,"ELEMENT_SET_NO":999,"REV_AT_EPOCH":8129,"BSTAR":0.0002214,"MEAN_MOTION_DOT":0.00002553,"MEAN_MOTION_DDOT":0},{"OBJECT_NAME":"CENTAURI-8","OBJECT_ID":"2025-009DK","EPOCH":"2026-07-12T17:48:24.994080","CLASSIFICATION_TYPE":"U","MEAN_MOTION":14.97918903,"ECCENTRICITY":0.0002505,"INCLINATION":97.7043,"RA_OF_ASC_NODE":273.5159,"ARG_OF_PERICENTER":79.7814,"MEAN_ANOMALY":280.369,"EPHEMERIS_TYPE":0,"NORAD_CAT_ID":62714,"ELEMENT_SET_NO":999,"REV_AT_EPOCH":8130,"BSTAR":0.00012751,"MEAN_MOTION_DOT":0.00001444,"MEAN_MOTION_DDOT":0}]}
